[{"OBJECT_NAME":"KUIPER-00146","OBJECT_ID":"2025-228W","EPOCH":"2026-03-14T23:25:11.779392","MEAN_MOTION":14.76674576,"ECCENTRICITY":7.569e-5,"INCLINATION":51.9031,"RA_OF_ASC_NODE":319.7655,"ARG_OF_PERICENTER":25.3595,"MEAN_ANOMALY":334.7403,"EPHEMERIS_TYPE":0,"CLASSIFICATION_TYPE":"U","NORAD_CAT_ID":65967,"ELEMENT_SET_NO":999,"REV_AT_EPOCH":2425,"BSTAR":0.0067187363,"MEAN_MOTION_DOT":0.00047546,"MEAN_MOTION_DDOT":0},{"OBJECT_NAME":"KUIPER-00149","OBJECT_ID":"2025-228X","EPOCH":"2026-03-14T22:52:32.204928","MEAN_MOTION":14.79865812,"ECCENTRICITY":0.00013135,"INCLINATION":51.9014,"RA_OF_ASC_NODE":314.8301,"ARG_OF_PERICENTER":100.2268,"MEAN_ANOMALY":259.8843,"EPHEMERIS_TYPE":0,"CLASSIFICATION_TYPE":"U","NORAD_CAT_ID":65968,"ELEMENT_SET_NO":999,"REV_AT_EPOCH":2432,"BSTAR":-9.0508178e-5,"MEAN_MOTION_DOT":-9.1e-6,"MEAN_MOTION_DDOT":0},{"OBJECT_NAME":"KUIPER-00154","OBJECT_ID":"2025-228Y","EPOCH":"2026-03-14T22:07:40.663488","MEAN_MOTION":14.79920014,"ECCENTRICITY":7.873e-5,"INCLINATION":51.9003,"RA_OF_ASC_NODE":312.4709,"ARG_OF_PERICENTER":111.0943,"MEAN_ANOMALY":249.0104,"EPHEMERIS_TYPE":0,"CLASSIFICATION_TYPE":"U","NORAD_CAT_ID":65969,"ELEMENT_SET_NO":999,"REV_AT_EPOCH":2435,"BSTAR":0.0005803691,"MEAN_MOTION_DOT":4.205e-5,"MEAN_MOTION_DDOT":0},{"OBJECT_NAME":"KUIPER-00157","OBJECT_ID":"2025-228Z","EPOCH":"2026-03-14T22:03:50.757408","MEAN_MOTION":14.79926782,"ECCENTRICITY":0.00011068,"INCLINATION":51.9015,"RA_OF_ASC_NODE":315.0926,"ARG_OF_PERICENTER":94.6955,"MEAN_ANOMALY":265.4134,"EPHEMERIS_TYPE":0,"CLASSIFICATION_TYPE":"U","NORAD_CAT_ID":65970,"ELEMENT_SET_NO":999,"REV_AT_EPOCH":2431,"BSTAR":-0.00048650763,"MEAN_MOTION_DOT":-3.927e-5,"MEAN_MOTION_DDOT":0},{"OBJECT_NAME":"KUIPER-00144","OBJECT_ID":"2025-301A","EPOCH":"2026-03-15T04:12:03.497472","MEAN_MOTION":15.38653235,"ECCENTRICITY":0.00076079,"INCLINATION":51.8691,"RA_OF_ASC_NODE":38.487,"ARG_OF_PERICENTER":55.4894,"MEAN_ANOMALY":304.6811,"EPHEMERIS_TYPE":0,"CLASSIFICATION_TYPE":"U","NORAD_CAT_ID":67133,"ELEMENT_SET_NO":999,"REV_AT_EPOCH":1458,"BSTAR":0.0018155041,"MEAN_MOTION_DOT":0.0007074,"MEAN_MOTION_DDOT":0},{"OBJECT_NAME":"KUIPER-00164","OBJECT_ID":"2025-301B","EPOCH":"2026-03-15T06:00:00.999648","MEAN_MOTION":14.99608223,"ECCENTRICITY":0.00054494,"INCLINATION":51.8904,"RA_OF_ASC_NODE":41.6705,"ARG_OF_PERICENTER":100.1021,"MEAN_ANOMALY":292.509,"EPHEMERIS_TYPE":0,"CLASSIFICATION_TYPE":"U","NORAD_CAT_ID":67134,"ELEMENT_SET_NO":999,"REV_AT_EPOCH":375,"BSTAR":0.0011564763,"MEAN_MOTION_DOT":0.0001416,"MEAN_MOTION_DDOT":0},{"OBJECT_NAME":"KUIPER-00175","OBJECT_ID":"2025-301C","EPOCH":"2026-03-15T06:00:00.999648","MEAN_MOTION":15.28960122,"ECCENTRICITY":0.00024271,"INCLINATION":51.8802,"RA_OF_ASC_NODE":38.4761,"ARG_OF_PERICENTER":67.3649,"MEAN_ANOMALY":193.8531,"EPHEMERIS_TYPE":0,"CLASSIFICATION_TYPE":"U","NORAD_CAT_ID":67135,"ELEMENT_SET_NO":999,"REV_AT_EPOCH":513,"BSTAR":0.0019215584,"MEAN_MOTION_DOT":0.00054879,"MEAN_MOTION_DDOT":0},{"OBJECT_NAME":"KUIPER-00179","OBJECT_ID":"2025-301D","EPOCH":"2026-03-15T06:00:00.999648","MEAN_MOTION":15.01433728,"ECCENTRICITY":0.00023316,"INCLINATION":51.8912,"RA_OF_ASC_NODE":41.2963,"ARG_OF_PERICENTER":83.9667,"MEAN_ANOMALY":234.4716,"EPHEMERIS_TYPE":0,"CLASSIFICATION_TYPE":"U","NORAD_CAT_ID":67136,"ELEMENT_SET_NO":999,"REV_AT_EPOCH":542,"BSTAR":0.0014691603,"MEAN_MOTION_DOT":0.00018964,"MEAN_MOTION_DDOT":0},{"OBJECT_NAME":"KUIPER-00181","OBJECT_ID":"2025-301E","EPOCH":"2026-03-15T04:48:28.611360","MEAN_MOTION":14.76454751,"ECCENTRICITY":0.00019471,"INCLINATION":51.9024,"RA_OF_ASC_NODE":52.8665,"ARG_OF_PERICENTER":102.2006,"MEAN_ANOMALY":257.9173,"EPHEMERIS_TYPE":0,"CLASSIFICATION_TYPE":"U","NORAD_CAT_ID":67137,"ELEMENT_SET_NO":999,"REV_AT_EPOCH":1454,"BSTAR":0.0004573228,"MEAN_MOTION_DOT":2.998e-5,"MEAN_MOTION_DDOT":0},{"OBJECT_NAME":"KUIPER-00183","OBJECT_ID":"2025-301F","EPOCH":"2026-03-14T03:19:37.116192","MEAN_MOTION":15.28358162,"ECCENTRICITY":0.00143827,"INCLINATION":51.866,"RA_OF_ASC_NODE":44.9009,"ARG_OF_PERICENTER":74.9102,"MEAN_ANOMALY":285.3471,"EPHEMERIS_TYPE":0,"CLASSIFICATION_TYPE":"U","NORAD_CAT_ID":67138,"ELEMENT_SET_NO":999,"REV_AT_EPOCH":1457,"BSTAR":0.0010454342,"MEAN_MOTION_DOT":0.00029125,"MEAN_MOTION_DDOT":0},{"OBJECT_NAME":"KUIPER-00184","OBJECT_ID":"2025-301G","EPOCH":"2026-03-15T06:00:00.999648","MEAN_MOTION":15.25691733,"ECCENTRICITY":0.00116274,"INCLINATION":51.8695,"RA_OF_ASC_NODE":39.1048,"ARG_OF_PERICENTER":72.5263,"MEAN_ANOMALY":169.4316,"EPHEMERIS_TYPE":0,"CLASSIFICATION_TYPE":"U","NORAD_CAT_ID":67139,"ELEMENT_SET_NO":999,"REV_AT_EPOCH":587,"BSTAR":0.0014004363,"MEAN_MOTION_DOT":0.00036072,"MEAN_MOTION_DDOT":0},{"OBJECT_NAME":"KUIPER-00186","OBJECT_ID":"2025-301H","EPOCH":"2026-03-15T06:00:42.924384","MEAN_MOTION":14.79895654,"ECCENTRICITY":8.631e-5,"INCLINATION":51.9039,"RA_OF_ASC_NODE":53.5209,"ARG_OF_PERICENTER":93.5928,"MEAN_ANOMALY":266.5133,"EPHEMERIS_TYPE":0,"CLASSIFICATION_TYPE":"U","NORAD_CAT_ID":67140,"ELEMENT_SET_NO":999,"REV_AT_EPOCH":1438,"BSTAR":0.00036892882,"MEAN_MOTION_DOT":2.59e-5,"MEAN_MOTION_DDOT":0},{"OBJECT_NAME":"KUIPER-00187","OBJECT_ID":"2025-301J","EPOCH":"2026-03-15T05:56:45.996576","MEAN_MOTION":14.79958604,"ECCENTRICITY":7.266e-5,"INCLINATION":51.9036,"RA_OF_ASC_NODE":56.0468,"ARG_OF_PERICENTER":76.3711,"MEAN_ANOMALY":283.7332,"EPHEMERIS_TYPE":0,"CLASSIFICATION_TYPE":"U","NORAD_CAT_ID":67141,"ELEMENT_SET_NO":999,"REV_AT_EPOCH":1434,"BSTAR":0.00064900594,"MEAN_MOTION_DOT":4.733e-5,"MEAN_MOTION_DDOT":0},{"OBJECT_NAME":"KUIPER-00188","OBJECT_ID":"2025-301K","EPOCH":"2026-03-15T04:48:32.381856","MEAN_MOTION":15.38167077,"ECCENTRICITY":0.00101352,"INCLINATION":51.869,"RA_OF_ASC_NODE":38.6462,"ARG_OF_PERICENTER":67.5391,"MEAN_ANOMALY":292.6668,"EPHEMERIS_TYPE":0,"CLASSIFICATION_TYPE":"U","NORAD_CAT_ID":67142,"ELEMENT_SET_NO":999,"REV_AT_EPOCH":1458,"BSTAR":0.0019412049,"MEAN_MOTION_DOT":0.00074561,"MEAN_MOTION_DDOT":0},{"OBJECT_NAME":"KUIPER-00191","OBJECT_ID":"2025-301L","EPOCH":"2026-03-15T05:19:50.017152","MEAN_MOTION":14.7996297,"ECCENTRICITY":9.157e-5,"INCLINATION":51.9006,"RA_OF_ASC_NODE":48.6828,"ARG_OF_PERICENTER":50.8915,"MEAN_ANOMALY":309.2129,"EPHEMERIS_TYPE":0,"CLASSIFICATION_TYPE":"U","NORAD_CAT_ID":67143,"ELEMENT_SET_NO":999,"REV_AT_EPOCH":1447,"BSTAR":0.00099433719,"MEAN_MOTION_DOT":7.373e-5,"MEAN_MOTION_DDOT":0},{"OBJECT_NAME":"KUIPER-00196","OBJECT_ID":"2025-301M","EPOCH":"2026-03-15T03:38:22.375104","MEAN_MOTION":15.38771025,"ECCENTRICITY":0.00039506,"INCLINATION":51.8728,"RA_OF_ASC_NODE":38.3522,"ARG_OF_PERICENTER":44.2446,"MEAN_ANOMALY":315.8856,"EPHEMERIS_TYPE":0,"CLASSIFICATION_TYPE":"U","NORAD_CAT_ID":67144,"ELEMENT_SET_NO":999,"REV_AT_EPOCH":1458,"BSTAR":0.00060045796,"MEAN_MOTION_DOT":0.00023058,"MEAN_MOTION_DDOT":0}]
