KUIPER-00146            
1 65967U 25228W   26073.97583078  .00047546  00000+0  67187-2 0  9993
2 65967  51.9031 319.7655 0000756  25.3595 334.7403 14.76674576 24257
KUIPER-00149            
1 65968U 25228X   26073.95315052 -.00000910  00000+0 -90508-4 0  9998
2 65968  51.9014 314.8301 0001313 100.2268 259.8843 14.79865812 24324
KUIPER-00154            
1 65969U 25228Y   26073.92199842  .00004205  00000+0  58037-3 0  9992
2 65969  51.9003 312.4709 0000787 111.0943 249.0104 14.79920014 24353
KUIPER-00157            
1 65970U 25228Z   26073.91933747 -.00003927  00000+0 -48651-3 0  9996
2 65970  51.9015 315.0926 0001106  94.6955 265.4134 14.79926782 24312
KUIPER-00144            
1 67133U 25301A   26074.17504048  .00070740  00000+0  18155-2 0  9998
2 67133  51.8691  38.4870 0007607  55.4894 304.6811 15.38653235 14589
KUIPER-00164            
1 67134U 25301B   26074.25001157  .00014160  00000+0  11565-2 0  9993
2 67134  51.8904  41.6705 0005449 100.1021 292.5090 14.99608223  3756
KUIPER-00175            
1 67135U 25301C   26074.25001157  .00054879  00000+0  19216-2 0  9996
2 67135  51.8802  38.4761 0002427  67.3649 193.8531 15.28960122  5132
KUIPER-00179            
1 67136U 25301D   26074.25001157  .00018964  00000+0  14692-2 0  9995
2 67136  51.8912  41.2963 0002331  83.9667 234.4716 15.01433728  5426
KUIPER-00181            
1 67137U 25301E   26074.20033115  .00002998  00000+0  45732-3 0  9990
2 67137  51.9024  52.8665 0001947 102.2006 257.9173 14.76454751 14543
KUIPER-00183            
1 67138U 25301F   26073.13862403  .00029125  00000+0  10454-2 0  9995
2 67138  51.8660  44.9009 0014382  74.9102 285.3471 15.28358162 14578
KUIPER-00184            
1 67139U 25301G   26074.25001157  .00036072  00000+0  14004-2 0  9995
2 67139  51.8695  39.1048 0011627  72.5263 169.4316 15.25691733  5871
KUIPER-00186            
1 67140U 25301H   26074.25049681  .00002590  00000+0  36893-3 0  9990
2 67140  51.9039  53.5209 0000863  93.5928 266.5133 14.79895654 14384
KUIPER-00187            
1 67141U 25301J   26074.24775459  .00004733  00000+0  64901-3 0  9991
2 67141  51.9036  56.0468 0000726  76.3711 283.7332 14.79958604 14347
KUIPER-00188            
1 67142U 25301K   26074.20037479  .00074561  00000+0  19412-2 0  9993
2 67142  51.8690  38.6462 0010135  67.5391 292.6668 15.38167077 14583
KUIPER-00191            
1 67143U 25301L   26074.22210668  .00007373  00000+0  99434-3 0  9999
2 67143  51.9006  48.6828 0000915  50.8915 309.2129 14.79962970 14479
KUIPER-00196            
1 67144U 25301M   26074.15164786  .00023058  00000+0  60046-3 0  9996
2 67144  51.8728  38.3522 0003950  44.2446 315.8856 15.38771025 14582
